[{"OBJECT_NAME":"AAC-AIS-SAT1","OBJECT_ID":"2023-001DC","EPOCH":"2026-03-09T23:01:17.922144","MEAN_MOTION":14.91136128,"ECCENTRICITY":0.00085003,"INCLINATION":97.9251,"RA_OF_ASC_NODE":145.2649,"ARG_OF_PERICENTER":240.5114,"MEAN_ANOMALY":119.5257,"EPHEMERIS_TYPE":0,"CLASSIFICATION_TYPE":"U","NORAD_CAT_ID":55107,"ELEMENT_SET_NO":999,"REV_AT_EPOCH":16349,"BSTAR":0.00074274767,"MEAN_MOTION_DOT":7.319e-5,"MEAN_MOTION_DDOT":0},{"OBJECT_NAME":"CZ-6A DEB","OBJECT_ID":"2022-151AAT","EPOCH":"2026-03-09T02:30:48.170016","MEAN_MOTION":14.72419564,"ECCENTRICITY":0.00958902,"INCLINATION":98.5926,"RA_OF_ASC_NODE":118.6515,"ARG_OF_PERICENTER":262.2874,"MEAN_ANOMALY":96.7434,"EPHEMERIS_TYPE":0,"CLASSIFICATION_TYPE":"U","NORAD_CAT_ID":55895,"ELEMENT_SET_NO":999,"REV_AT_EPOCH":16993,"BSTAR":0.0033438796,"MEAN_MOTION_DOT":0.00022794,"MEAN_MOTION_DDOT":0}]
